NORAD_CAT_ID,OBJECT_NAME,OBJECT_TYPE,EPOCH,MEAN_MOTION,ECCENTRICITY,INCLINATION,RA_OF_ASC_NODE,ARG_OF_PERICENTER,MEAN_ANOMALY,BSTAR,MEAN_MOTION_DOT,MEAN_MOTION_DDOT,TLE_LINE0,TLE_LINE1,TLE_LINE2,SEMIMAJOR_AXIS,PERIOD,APOGEE,PERIGEE,DECAYED
53904.0,STARLINK-4787,PAYLOAD,2023-11-26 16:24:23,15.08829895,0.0001277,53.2176,107.7182,86.5206,273.5932,-2.7353e-05,-7.23e-06,0.0,0 STARLINK-4787,1 53904U 22119U   23330.68360753 -.00000723  00000-0 -27353-4 0  9993,2 53904  53.2176 107.7182 0001277  86.5206 273.5932 15.08829895 65789,6917.911,95.438,540.66,538.893,0.0
53904.0,STARLINK-4787,PAYLOAD,2023-11-27 09:53:37,15.08845343,0.0001265,53.2173,104.4502,69.7707,290.3421,3.793e-05,3.16e-06,0.0,0 STARLINK-4787,1 53904U 22119U   23331.41223971  .00000316  00000-0  37930-4 0  9993,2 53904  53.2173 104.4502 0001265  69.7707 290.3421 15.08845343 65474,6917.864,95.437,540.604,538.854,0.0
53904.0,STARLINK-4787,PAYLOAD,2023-11-27 14:39:46,15.08849643,0.0001236,53.2166,103.5578,81.7193,278.3939,0.00011485,1.541e-05,0.0,0 STARLINK-4787,1 53904U 22119U   23331.61095595  .00001541  00000-0  11485-3 0  9991,2 53904  53.2166 103.5578 0001236  81.7193 278.3939 15.08849643 65927,6917.851,95.437,540.571,538.861,0.0
53904.0,STARLINK-4787,PAYLOAD,2023-11-28 14:30:33,15.08845446,0.0001486,53.2189,99.1006,108.2776,251.8378,0.00017663,2.525e-05,0.0,0 STARLINK-4787,1 53904U 22119U   23332.60455753  .00002525  00000-0  17663-3 0  9994,2 53904  53.2189  99.1006 0001486 108.2776 251.8378 15.08845446 66074,6917.864,95.437,540.757,538.701,0.0
53904.0,STARLINK-4787,PAYLOAD,2023-11-28 17:41:19,15.08849573,0.0001414,53.218,98.5007,98.7541,261.3612,0.00021454,3.129e-05,0.0,0 STARLINK-4787,1 53904U 22119U   23332.73703496  .00003129  00000-0  21454-3 0  9992,2 53904  53.2180  98.5007 0001414  98.7541 261.3612 15.08849573 65670,6917.851,95.437,540.694,538.738,0.0
53904.0,STARLINK-4787,PAYLOAD,2023-11-29 14:21:21,15.08845797,0.0001357,53.2187,94.6399,66.9292,293.1843,3.591e-05,2.84e-06,0.0,0 STARLINK-4787,1 53904U 22119U   23333.59816007  .00000284  00000-0  35910-4 0  9992,2 53904  53.2187  94.6399 0001357  66.9292 293.1843 15.08845797 66229,6917.863,95.437,540.666,538.789,0.0
53904.0,STARLINK-4787,PAYLOAD,2023-11-29 15:56:43,15.0885032,0.0001222,53.2184,94.3416,80.1767,279.9363,6.1216e-05,6.87e-06,0.0,0 STARLINK-4787,1 53904U 22119U   23333.66439588  .00000687  00000-0  61216-4 0  9990,2 53904  53.2184  94.3416 0001222  80.1767 279.9363 15.08850320 65810,6917.849,95.437,540.559,538.868,0.0
53904.0,STARLINK-4787,PAYLOAD,2023-11-30 14:12:08,15.08844245,0.0001845,53.2191,90.1793,56.4651,303.6517,4.2841e-06,-2.2e-06,0.0,0 STARLINK-4787,1 53904U 22119U   23334.59176173 -.00000220  00000-0  42841-5 0  9999,2 53904  53.2191  90.1793 0001845  56.4651 303.6517 15.08844245 65959,6917.867,95.437,541.009,538.456,0.0
53904.0,STARLINK-4787,PAYLOAD,2023-12-01 14:02:54,15.08842238,0.0001554,53.2195,85.7214,84.8259,275.291,0.00012125,1.642e-05,0.0,0 STARLINK-4787,1 53904U 22119U   23335.58535833  .00001642  00000-0  12125-3 0  9999,2 53904  53.2195  85.7214 0001554  84.8259 275.2910 15.08842238 66522,6917.874,95.437,540.814,538.664,0.0
53904.0,STARLINK-4787,PAYLOAD,2023-12-02 12:18:17,15.08866868,0.0001643,53.2186,81.5599,102.4638,257.6538,0.00048132,7.386e-05,0.0,0 STARLINK-4787,1 53904U 22119U   23336.51270311  .00007386  00000-0  48132-3 0  9998,2 53904  53.2186  81.5599 0001643 102.4638 257.6538 15.08866868 66243,6917.798,95.436,540.8,538.527,0.0
53904.0,STARLINK-4787,PAYLOAD,2023-12-02 13:53:40,15.08867768,0.0001654,53.2182,81.2613,99.8107,260.3072,0.00052171,8.031e-05,0.0,0 STARLINK-4787,1 53904U 22119U   23336.57894383  .00008031  00000-0  52171-3 0  9991,2 53904  53.2182  81.2613 0001654  99.8107 260.3072 15.08867768 66676,6917.796,95.436,540.805,538.516,0.0
53904.0,STARLINK-4787,PAYLOAD,2023-12-03 12:09:07,15.08805533,0.0001629,53.2178,77.0837,125.0999,235.0146,-0.00060833,-9.947e-05,0.0,0 STARLINK-4787,1 53904U 22119U   23337.50633312 -.00009947  00000-0 -60833-3 0  9991,2 53904  53.2178  77.0837 0001629 125.0999 235.0146 15.08805533 66397,6917.986,95.44,540.978,538.724,0.0
53904.0,STARLINK-4787,PAYLOAD,2023-12-03 13:44:30,15.08801599,0.0001452,53.2174,76.788,118.2014,241.9124,-0.00064378,-0.00010508,0.0,0 STARLINK-4787,1 53904U 22119U   23337.57257796 -.00010508  00000-0 -64378-3 0  9999,2 53904  53.2174  76.7880 0001452 118.2014 241.9124 15.08801599 66821,6917.998,95.44,540.867,538.858,0.0
53904.0,STARLINK-4787,PAYLOAD,2023-12-04 11:59:53,15.08847012,0.0001821,53.2181,72.6354,120.7399,239.3773,0.00016316,2.31e-05,0.0,0 STARLINK-4787,1 53904U 22119U   23338.49992678  .00002310  00000-0  16316-3 0  9995,2 53904  53.2181  72.6354 0001821 120.7399 239.3773 15.08847012 66544,6917.859,95.437,540.984,538.464,0.0
53904.0,STARLINK-4787,PAYLOAD,2023-12-05 11:50:41,15.08829815,0.0001586,53.2194,68.1754,124.478,235.6362,0.00048637,7.459e-05,0.0,0 STARLINK-4787,1 53904U 22119U   23339.49353495  .00007459  00000-0  48637-3 0  9994,2 53904  53.2194  68.1754 0001586 124.4780 235.6362 15.08829815 66695,6917.912,95.438,540.874,538.679,0.0
53904.0,STARLINK-4787,PAYLOAD,2023-12-05 13:26:04,15.08832996,0.0001415,53.2188,67.8778,118.6604,241.4531,0.00050619,7.776e-05,0.0,0 STARLINK-4787,1 53904U 22119U   23339.55977315  .00007776  00000-0  50619-3 0  9999,2 53904  53.2188  67.8778 0001415 118.6604 241.4531 15.08832996 67127,6917.902,95.438,540.746,538.788,0.0
53904.0,STARLINK-4787,PAYLOAD,2023-12-06 13:16:52,15.08815493,0.0001469,53.2192,63.4182,112.4719,247.6429,0.00050207,7.706e-05,0.0,0 STARLINK-4787,1 53904U 22119U   23340.55338125  .00007706  00000-0  50207-3 0  9997,2 53904  53.2192  63.4182 0001469 112.4719 247.6429 15.08815493 67274,6917.955,95.439,540.837,538.804,0.0
53904.0,STARLINK-4787,PAYLOAD,2023-12-07 11:32:15,15.08842632,0.0001873,53.2193,59.2571,85.8567,274.264,-9.9516e-06,-4.47e-06,0.0,0 STARLINK-4787,1 53904U 22119U   23341.48073383 -.00000447  00000-0 -99516-5 0  9997,2 53904  53.2193  59.2571 0001873  85.8567 274.2640 15.08842632 66997,6917.872,95.437,541.033,538.442,0.0
53904.0,STARLINK-4787,PAYLOAD,2023-12-07 13:07:38,15.08839912,0.0001877,53.2197,58.9598,85.3744,274.7463,5.7035e-05,6.2e-06,0.0,0 STARLINK-4787,1 53904U 22119U   23341.54697362  .00000620  00000-0  57035-4 0  9993,2 53904  53.2197  58.9598 0001877  85.3744 274.7463 15.08839912 67426,6917.881,95.438,541.044,538.447,0.0
53904.0,STARLINK-4787,PAYLOAD,2023-12-08 11:23:00,15.08859731,0.0001438,53.22,54.7972,73.0324,287.0826,0.00020892,3.04e-05,0.0,0 STARLINK-4787,1 53904U 22119U   23342.47431435  .00003040  00000-0  20892-3 0  9992,2 53904  53.2200  54.7972 0001438  73.0324 287.0826 15.08859731 67142,6917.82,95.436,540.68,538.69,0.0
53904.0,STARLINK-4787,PAYLOAD,2023-12-09 11:13:48,15.08839969,0.0001155,53.2181,50.3331,99.3457,260.7666,-5.7373e-07,-2.97e-06,0.0,0 STARLINK-4787,1 53904U 22119U   23343.46792795 -.00000297  00000-0 -57373-6 0  9991,2 53904  53.2181  50.3331 0001155  99.3457 260.7666 15.08839969 67292,6917.88,95.438,540.544,538.946,0.0
53904.0,STARLINK-4787,PAYLOAD,2023-12-09 14:24:35,15.08839428,0.000118,53.2184,49.7391,95.3679,264.7448,-6.7047e-06,-3.95e-06,0.0,0 STARLINK-4787,1 53904U 22119U   23343.60040850 -.00000395  00000-0 -67047-5 0  9992,2 53904  53.2184  49.7391 0001180  95.3679 264.7448 15.08839428 67734,6917.882,95.438,540.563,538.931,0.0
53904.0,STARLINK-4787,PAYLOAD,2023-12-11 10:55:23,15.08837667,0.0001256,53.2179,41.4112,93.8766,266.237,9.2731e-05,1.188e-05,0.0,0 STARLINK-4787,1 53904U 22119U   23345.45512861  .00001188  00000-0  92731-4 0  9999,2 53904  53.2179  41.4112 0001256  93.8766 266.2370 15.08837667 67590,6917.888,95.438,540.621,538.884,0.0
53904.0,STARLINK-4787,PAYLOAD,2023-12-12 09:10:47,15.08835762,0.0001506,53.2182,37.2526,109.0955,251.0201,1.759e-05,-8e-08,0.0,0 STARLINK-4787,1 53904U 22119U   23346.38249537 -.00000008  00000-0  17590-4 0  9990,2 53904  53.2182  37.2526 0001506 109.0955 251.0201 15.08835762 67739,6917.893,95.438,540.8,538.717,0.0
53904.0,STARLINK-4787,PAYLOAD,2023-12-13 10:36:57,15.08841055,0.0001376,53.2178,32.4923,94.7485,265.3664,5.0994e-05,5.24e-06,0.0,0 STARLINK-4787,1 53904U 22119U   23347.44233290  .00000524  00000-0  50994-4 0  9994,2 53904  53.2178  32.4923 0001376  94.7485 265.3664 15.08841055 67895,6917.877,95.437,540.694,538.79,0.0
53904.0,STARLINK-4787,PAYLOAD,2023-12-14 10:27:44,15.08842447,0.0001437,53.2181,28.0333,89.4095,270.7062,7.771e-05,9.49e-06,0.0,0 STARLINK-4787,1 53904U 22119U   23348.43593281  .00000949  00000-0  77710-4 0  9999,2 53904  53.2181  28.0333 0001437  89.4095 270.7062 15.08842447 68463,6917.873,95.437,540.732,538.744,0.0
53904.0,STARLINK-4787,PAYLOAD,2023-12-15 10:18:32,15.0884029,0.000193,53.2191,23.5704,65.7502,294.3692,3.3739e-05,2.49e-06,0.0,0 STARLINK-4787,1 53904U 22119U   23349.42953779  .00000249  00000-0  33739-4 0  9997,2 53904  53.2191  23.5704 0001930  65.7502 294.3692 15.08840290 68199,6917.88,95.438,541.08,538.409,0.0
53904.0,STARLINK-4787,PAYLOAD,2023-12-16 08:33:56,15.08840925,0.0001834,53.2185,19.4079,72.1838,287.9354,-3.419e-06,-3.43e-06,0.0,0 STARLINK-4787,1 53904U 22119U   23350.35689903 -.00000343  00000-0 -34190-5 0  9996,2 53904  53.2185  19.4079 0001834  72.1838 287.9354 15.08840925 68758,6917.878,95.437,541.011,538.474,0.0
53904.0,STARLINK-4787,PAYLOAD,2023-12-17 08:24:43,15.08837816,0.0001839,53.219,14.9437,72.4504,287.6689,1.3665e-05,-7.1e-07,0.0,0 STARLINK-4787,1 53904U 22119U   23351.35050131 -.00000071  00000-0  13665-4 0  9992,2 53904  53.2190  14.9437 0001839  72.4504 287.6689 15.08837816 68483,6917.887,95.438,541.024,538.48,0.0
53904.0,STARLINK-4787,PAYLOAD,2023-12-18 08:15:29,15.0884768,0.0001742,53.2186,10.4827,100.3656,259.7533,0.00013057,1.791e-05,0.0,0 STARLINK-4787,1 53904U 22119U   23352.34408882  .00001791  00000-0  13057-3 0  9995,2 53904  53.2186  10.4827 0001742 100.3656 259.7533 15.08847680 68639,6917.857,95.437,540.927,538.517,0.0
